start=new Date('2022-02-05T00:00:00.000Z').valueOf();
sats=[{"LAUNCH_DATE":"2021-03-24","PERIOD":"95.592","PERIAPSIS":"546.232","TLE_LINE1":"1 48005U 21024AE  22035.79373034  .00000356  00000-0  42766-4 0  9997","COUNTRY_CODE":"US","OBJECT_ID":"2021-024AE","REF_FRAME":"TEME","INCLINATION":"53.0537","CENTER_NAME":"EARTH","GP_ID":"195308660","MEAN_ELEMENT_THEORY":"SGP4","SEMIMAJOR_AXIS":"6925.323","NORAD_CAT_ID":"48005","MEAN_MOTION_DOT":"0.00000356","DECAY_DATE":null,"RA_OF_ASC_NODE":"172.9829","TLE_LINE2":"2 48005  53.0537 172.9829 0001381  71.6516 288.4624 15.06408280 49291","REV_AT_EPOCH":"4929","MEAN_MOTION":"15.06408280","FILE":"3292112","APOAPSIS":"548.145","SITE":"AFETR","ARG_OF_PERICENTER":"71.6516","TIME_SYSTEM":"UTC","OBJECT_TYPE":"PAYLOAD","CLASSIFICATION_TYPE":"U","EPOCH":"2022-02-04T19:02:58.301376","MEAN_ANOMALY":"288.4624","RCS_SIZE":"LARGE","ELEMENT_SET_NO":"999","OBJECT_NAME":"STARLINK-2254","BSTAR":"0.00004276600000","EPHEMERIS_TYPE":"0","ECCENTRICITY":"0.00013810","MEAN_MOTION_DDOT":"0.0000000000000"},{"GP_ID":"195299704","MEAN_ELEMENT_THEORY":"SGP4","NORAD_CAT_ID":"48008","SEMIMAJOR_AXIS":"6925.428","MEAN_MOTION_DOT":"0.00039920","DECAY_DATE":null,"RA_OF_ASC_NODE":"108.9082","REV_AT_EPOCH":"359","TLE_LINE2":"2 48008  53.0544 108.9082 0001249  71.3901 109.8727 15.06374063  3594","MEAN_MOTION":"15.06374063","FILE":"3291889","APOAPSIS":"548.158","SITE":"AFETR","LAUNCH_DATE":"2021-03-24","PERIOD":"95.594","PERIAPSIS":"546.428","TLE_LINE1":"1 48008U 21024AH  22035.58335648  .00039920  00000-0  26856-2 0  9995","COUNTRY_CODE":"US","OBJECT_ID":"2021-024AH","REF_FRAME":"TEME","INCLINATION":"53.0544","CENTER_NAME":"EARTH","OBJECT_NAME":"STARLINK-2271","RCS_SIZE":"LARGE","ELEMENT_SET_NO":"999","BSTAR":"0.00268560000000","EPHEMERIS_TYPE":"0","ECCENTRICITY":"0.00012490","MEAN_MOTION_DDOT":"0.0000000000000","TIME_SYSTEM":"UTC","ARG_OF_PERICENTER":"71.3901","CLASSIFICATION_TYPE":"U","OBJECT_TYPE":"PAYLOAD","EPOCH":"2022-02-04T14:00:01.999872","MEAN_ANOMALY":"109.8727"},{"ELEMENT_SET_NO":"999","RCS_SIZE":"LARGE","OBJECT_NAME":"STARLINK-2153","EPHEMERIS_TYPE":"0","BSTAR":"0.00013347000000","ECCENTRICITY":"0.00017000","MEAN_MOTION_DDOT":"0.0000000000000","TIME_SYSTEM":"UTC","ARG_OF_PERICENTER":"67.5605","CLASSIFICATION_TYPE":"U","OBJECT_TYPE":"PAYLOAD","EPOCH":"2022-02-04T09:49:39.218016","MEAN_ANOMALY":"292.5564","SEMIMAJOR_AXIS":"6925.319","NORAD_CAT_ID":"48009","MEAN_MOTION_DOT":"0.00001707","MEAN_ELEMENT_THEORY":"SGP4","GP_ID":"195299949","DECAY_DATE":null,"MEAN_MOTION":"15.06409508","FILE":"3291889","APOAPSIS":"548.362","RA_OF_ASC_NODE":"184.6634","REV_AT_EPOCH":"4956","TLE_LINE2":"2 48009  53.0562 184.6634 0001700  67.5605 292.5564 15.06409508 49568","SITE":"AFETR","PERIAPSIS":"546.007","LAUNCH_DATE":"2021-03-24","PERIOD":"95.592","TLE_LINE1":"1 48009U 21024AJ  22035.40948169  .00001707  00000-0  13347-3 0  9999","OBJECT_ID":"2021-024AJ","REF_FRAME":"TEME","COUNTRY_CODE":"US","INCLINATION":"53.0562","CENTER_NAME":"EARTH"},{"MEAN_MOTION_DDOT":"0.0000000000000","ECCENTRICITY":"0.00017610","BSTAR":"0.00009518000000","EPHEMERIS_TYPE":"0","RCS_SIZE":"LARGE","ELEMENT_SET_NO":"999","OBJECT_NAME":"STARLINK-2226","MEAN_ANOMALY":"280.3444","OBJECT_TYPE":"PAYLOAD","CLASSIFICATION_TYPE":"U","EPOCH":"2022-02-04T11:43:46.854336","ARG_OF_PERICENTER":"79.7744","TIME_SYSTEM":"UTC","SITE":"AFETR","RA_OF_ASC_NODE":"204.3403","REV_AT_EPOCH":"4929","TLE_LINE2":"2 48010  53.0535 204.3403 0001761  79.7744 280.3444 15.06405202 49299","MEAN_MOTION":"15.06405202","FILE":"3291889","APOAPSIS":"548.417","DECAY_DATE":null,"MEAN_ELEMENT_THEORY":"SGP4","GP_ID":"195298705","NORAD_CAT_ID":"48010","SEMIMAJOR_AXIS":"6925.333","MEAN_MOTION_DOT":"0.00001137","INCLINATION":"53.0535","CENTER_NAME":"EARTH","COUNTRY_CODE":"US","OBJECT_ID":"2021-024AK","REF_FRAME":"TEME","TLE_LINE1":"1 48010U 21024AK  22035.48873674  .00001137  00000-0  95180-4 0  9990","LAUNCH_DATE":"2021-03-24","PERIOD":"95.592","PERIAPSIS":"545.978"},{"ELEMENT_SET_NO":"999","RCS_SIZE":"LARGE","OBJECT_NAME":"STARLINK-2272","EPHEMERIS_TYPE":"0","BSTAR":"0.00011911000000","ECCENTRICITY":"0.00014300","MEAN_MOTION_DDOT":"0.0000000000000","TIME_SYSTEM":"UTC","ARG_OF_PERICENTER":"80.8880","CLASSIFICATION_TYPE":"U","OBJECT_TYPE":"PAYLOAD","EPOCH":"2022-02-04T18:39:03.892032","MEAN_ANOMALY":"279.2271","NORAD_CAT_ID":"48011","SEMIMAJOR_AXIS":"6925.319","MEAN_MOTION_DOT":"0.00001494","GP_ID":"195306695","MEAN_ELEMENT_THEORY":"SGP4","DECAY_DATE":null,"MEAN_MOTION":"15.06409698","FILE":"3292031","APOAPSIS":"548.174","RA_OF_ASC_NODE":"183.0516","REV_AT_EPOCH":"4915","TLE_LINE2":"2 48011  53.0562 183.0516 0001430  80.8880 279.2271 15.06409698 49158","SITE":"AFETR","PERIAPSIS":"546.194","LAUNCH_DATE":"2021-03-24","PERIOD":"95.592","TLE_LINE1":"1 48011U 21024AL  22035.77712838  .00001494  00000-0  11911-3 0  9992","OBJECT_ID":"2021-024AL","REF_FRAME":"TEME","COUNTRY_CODE":"US","INCLINATION":"53.0562","CENTER_NAME":"EARTH"},{"TIME_SYSTEM":"UTC","ARG_OF_PERICENTER":"47.6777","CLASSIFICATION_TYPE":"U","OBJECT_TYPE":"PAYLOAD","EPOCH":"2022-02-04T17:43:43.531392","MEAN_ANOMALY":"312.4408","OBJECT_NAME":"STARLINK-2216","RCS_SIZE":"LARGE","ELEMENT_SET_NO":"999","BSTAR":"0.01085700000000","EPHEMERIS_TYPE":"0","ECCENTRICITY":"0.00022540","MEAN_MOTION_DDOT":"0.0000000000000","LAUNCH_DATE":"2021-03-24","PERIOD":"94.727","PERIAPSIS":"503.805","TLE_LINE1":"1 48012U 21024AM  22035.73869828  .00245774  00000-0  10857-1 0  9998","COUNTRY_CODE":"US","OBJECT_ID":"2021-024AM","REF_FRAME":"TEME","INCLINATION":"53.0560","CENTER_NAME":"EARTH","MEAN_ELEMENT_THEORY":"SGP4","GP_ID":"195306689","SEMIMAJOR_AXIS":"6883.491","NORAD_CAT_ID":"48012","MEAN_MOTION_DOT":"0.00245774","DECAY_DATE":null,"RA_OF_ASC_NODE":"157.0708","TLE_LINE2":"2 48012  53.0560 157.0708 0002254  47.6777 312.4408 15.20161151 49519","REV_AT_EPOCH":"4951","MEAN_MOTION":"15.20161151","FILE":"3292031","APOAPSIS":"506.908","SITE":"AFETR"},{"INCLINATION":"53.0540","CENTER_NAME":"EARTH","OBJECT_ID":"2021-024AN","REF_FRAME":"TEME","COUNTRY_CODE":"US","TLE_LINE1":"1 48013U 21024AN  22035.60069930  .00003358  00000-0  24412-3 0  9995","PERIAPSIS":"545.932","LAUNCH_DATE":"2021-03-24","PERIOD":"95.591","SITE":"AFETR","MEAN_MOTION":"15.06418540","FILE":"3291889","APOAPSIS":"548.381","RA_OF_ASC_NODE":"168.8494","TLE_LINE2":"2 48013  53.0540 168.8494 0001768  61.7351 298.3817 15.06418540 49803","REV_AT_EPOCH":"4980","DECAY_DATE":null,"NORAD_CAT_ID":"48013","SEMIMAJOR_AXIS":"6925.292","MEAN_MOTION_DOT":"0.00003358","GP_ID":"195300449","MEAN_ELEMENT_THEORY":"SGP4","MEAN_ANOMALY":"298.3817","OBJECT_TYPE":"PAYLOAD","CLASSIFICATION_TYPE":"U","EPOCH":"2022-02-04T14:25:00.419520","TIME_SYSTEM":"UTC","ARG_OF_PERICENTER":"61.7351","MEAN_MOTION_DDOT":"0.0000000000000","ECCENTRICITY":"0.00017680","EPHEMERIS_TYPE":"0","BSTAR":"0.00024412000000","OBJECT_NAME":"STARLINK-2243","RCS_SIZE":"LARGE","ELEMENT_SET_NO":"999"},{"ECCENTRICITY":"0.00015980","MEAN_MOTION_DDOT":"0.0000000000000","RCS_SIZE":"LARGE","ELEMENT_SET_NO":"999","OBJECT_NAME":"STARLINK-2283","EPHEMERIS_TYPE":"0","BSTAR":"-0.00498650000000","OBJECT_TYPE":"PAYLOAD","CLASSIFICATION_TYPE":"U","EPOCH":"2022-02-04T22:00:00.999936","MEAN_ANOMALY":"13.1269","TIME_SYSTEM":"UTC","ARG_OF_PERICENTER":"55.2379","APOAPSIS":"550.745","MEAN_MOTION":"15.05609374","FILE":"3292031","TLE_LINE2":"2 48014  53.0527 131.4372 0001598  55.2379  13.1269 15.05609374 49876","REV_AT_EPOCH":"4987","RA_OF_ASC_NODE":"131.4372","SITE":"AFETR","MEAN_MOTION_DOT":"-0.00072252","SEMIMAJOR_AXIS":"6927.773","NORAD_CAT_ID":"48014","GP_ID":"195306894","MEAN_ELEMENT_THEORY":"SGP4","DECAY_DATE":null,"REF_FRAME":"TEME","OBJECT_ID":"2021-024AP","COUNTRY_CODE":"US","CENTER_NAME":"EARTH","INCLINATION":"53.0527","PERIAPSIS":"548.531","PERIOD":"95.642","LAUNCH_DATE":"2021-03-24","TLE_LINE1":"1 48014U 21024AP  22035.91667824 -.00072252  00000-0 -49865-2 0  9995"},{"CLASSIFICATION_TYPE":"U","OBJECT_TYPE":"PAYLOAD","EPOCH":"2022-02-04T14:00:01.999872","MEAN_ANOMALY":"70.6775","ARG_OF_PERICENTER":"55.5677","TIME_SYSTEM":"UTC","ECCENTRICITY":"0.00015950","MEAN_MOTION_DDOT":"0.0000000000000","ELEMENT_SET_NO":"999","RCS_SIZE":"LARGE","OBJECT_NAME":"STARLINK-2284","EPHEMERIS_TYPE":"0","BSTAR":"-0.00125270000000","REF_FRAME":"TEME","OBJECT_ID":"2021-024AR","COUNTRY_CODE":"US","CENTER_NAME":"EARTH","INCLINATION":"53.0537","PERIAPSIS":"546.054","PERIOD":"95.591","LAUNCH_DATE":"2021-03-24","TLE_LINE1":"1 48016U 21024AR  22035.58335648 -.00018901  00000-0 -12527-2 0  9992","APOAPSIS":"548.263","FILE":"3291889","MEAN_MOTION":"15.06418024","TLE_LINE2":"2 48016  53.0537 118.9128 0001595  55.5677  70.6775 15.06418024  3601","REV_AT_EPOCH":"360","RA_OF_ASC_NODE":"118.9128","SITE":"AFETR","MEAN_MOTION_DOT":"-0.00018901","NORAD_CAT_ID":"48016","SEMIMAJOR_AXIS":"6925.293","GP_ID":"195299454","MEAN_ELEMENT_THEORY":"SGP4","DECAY_DATE":null},{"CENTER_NAME":"EARTH","INCLINATION":"53.0519","REF_FRAME":"TEME","OBJECT_ID":"2021-024AS","COUNTRY_CODE":"US","TLE_LINE1":"1 48017U 21024AS  22035.74020471 -.00001877  00000-0 -33658-4 0  9990","PERIAPSIS":"438.325","PERIOD":"93.376","LAUNCH_DATE":"2021-03-24","SITE":"AFETR","APOAPSIS":"441.158","MEAN_MOTION":"15.42158663","FILE":"3292032","REV_AT_EPOCH":"4923","TLE_LINE2":"2 48017  53.0519 176.7356 0002078  29.4012 330.7109 15.42158663 49237","RA_OF_ASC_NODE":"176.7356","DECAY_DATE":null,"MEAN_MOTION_DOT":"-0.00001877","NORAD_CAT_ID":"48017","SEMIMAJOR_AXIS":"6817.877","MEAN_ELEMENT_THEORY":"SGP4","GP_ID":"195306919","MEAN_ANOMALY":"330.7109","OBJECT_TYPE":"PAYLOAD","CLASSIFICATION_TYPE":"U","EPOCH":"2022-02-04T17:45:53.686944","ARG_OF_PERICENTER":"29.4012","TIME_SYSTEM":"UTC","MEAN_MOTION_DDOT":"0.0000000000000","ECCENTRICITY":"0.00020780","EPHEMERIS_TYPE":"0","BSTAR":"-0.00003365800000","RCS_SIZE":"LARGE","ELEMENT_SET_NO":"999","OBJECT_NAME":"STARLINK-2239"}];
